{"type": "FeatureCollection", "features": [ {"type": "Feature", "properties": {"norad_id": 34761, "name": "COSMOS 2251 DEB", "group": "cosmos-2251-debris", "lat": -45.904774837905634, "lon": 2.0485879326636844, "alt_km": 777.8860483310918, "timestamp": "2025-12-03T19:33:07.372435+00:00", "meta": {"OBJECT_NAME": "COSMOS 2251 DEB", "OBJECT_ID": "1993-036AAF", "EPOCH": "2025-12-03T11:25:40.179072", "MEAN_MOTION": 14.37997313, "ECCENTRICITY": 0.0036092, "INCLINATION": 74.03, "RA_OF_ASC_NODE": 19.8628, "ARG_OF_PERICENTER": 56.9515, "MEAN_ANOMALY": 303.5096, "EPHEMERIS_TYPE": 0, "CLASSIFICATION_TYPE": "U", "NORAD_CAT_ID": 34761, "ELEMENT_SET_NO": 999, "REV_AT_EPOCH": 87516, "BSTAR": 0.00082876, "MEAN_MOTION_DOT": 2.5e-05, "MEAN_MOTION_DDOT": 0}, "tle": {"line1": "1 34761U 93036AAF 25337.47615948  .00002500  00000+0  82876-3 0  9996", "line2": "2 34761  74.0300  19.8628 0036092  56.9515 303.5096 14.37997313875162"}}, "geometry": {"type": "Point", "coordinates": [2.0485879326636844, -45.904774837905634]}}, {"type": "Feature", "properties": {"norad_id": 34784, "name": "COSMOS 2251 DEB", "group": "cosmos-2251-debris", "lat": 5.708457834609082, "lon": 159.79682273026972, "alt_km": 659.7572856327988, "timestamp": "2025-12-03T19:33:07.372445+00:00", "meta": {"OBJECT_NAME": "COSMOS 2251 DEB", "OBJECT_ID": "1993-036AAM", "EPOCH": "2025-12-03T10:32:30.704928", "MEAN_MOTION": 14.60709262, "ECCENTRICITY": 0.0049778, "INCLINATION": 74.0068, "RA_OF_ASC_NODE": 342.1579, "ARG_OF_PERICENTER": 154.2454, "MEAN_ANOMALY": 206.1207, "EPHEMERIS_TYPE": 0, "CLASSIFICATION_TYPE": "U", "NORAD_CAT_ID": 34784, "ELEMENT_SET_NO": 999, "REV_AT_EPOCH": 88399, "BSTAR": 0.00066781, "MEAN_MOTION_DOT": 3.283e-05, "MEAN_MOTION_DDOT": 0}, "tle": {"line1": "1 34784U 93036AAM 25337.43924427  .00003283  00000+0  66781-3 0  9998", "line2": "2 34784  74.0068 342.1579 0049778 154.2454 206.1207 14.60709262883996"}}, "geometry": {"type": "Point", "coordinates": [159.79682273026972, 5.708457834609082]}}, {"type": "Feature", "properties": {"norad_id": 34790, "name": "COSMOS 2251 DEB", "group": "cosmos-2251-debris", "lat": 20.161453306189156, "lon": -94.1994203810048, "alt_km": 770.5386982421887, "timestamp": "2025-12-03T19:33:07.372455+00:00", "meta": {"OBJECT_NAME": "COSMOS 2251 DEB", "OBJECT_ID": "1993-036AAT", "EPOCH": "2025-12-02T20:07:24.488832", "MEAN_MOTION": 14.2457003, "ECCENTRICITY": 0.01006839, "INCLINATION": 74.0549, "RA_OF_ASC_NODE": 261.5318, "ARG_OF_PERICENTER": 325.2539, "MEAN_ANOMALY": 90.5192, "EPHEMERIS_TYPE": 0, "CLASSIFICATION_TYPE": "U", "NORAD_CAT_ID": 34790, "ELEMENT_SET_NO": 999, "REV_AT_EPOCH": 86432, "BSTAR": 0.0013780227, "MEAN_MOTION_DOT": 3.347e-05, "MEAN_MOTION_DDOT": 0}, "tle": {"line1": "1 34790U 93036AAT 25336.83847788  .00003347  00000+0  13780-2 0  9993", "line2": "2 34790  74.0549 261.5318 0100683 325.2539  90.5192 14.24570030864322"}}, "geometry": {"type": "Point", "coordinates": [-94.1994203810048, 20.161453306189156]}}, {"type": "Feature", "properties": {"norad_id": 34792, "name": "COSMOS 2251 DEB", "group": "cosmos-2251-debris", "lat": 41.8188370811838, "lon": -158.49642042010498, "alt_km": 707.869303008425, "timestamp": "2025-12-03T19:33:07.372465+00:00", "meta": {"OBJECT_NAME": "COSMOS 2251 DEB", "OBJECT_ID": "1993-036AAV", "EPOCH": "2025-12-03T09:44:49.123968", "MEAN_MOTION": 14.55832875, "ECCENTRICITY": 0.0012594, "INCLINATION": 74.0179, "RA_OF_ASC_NODE": 187.421, "ARG_OF_PERICENTER": 281.0793, "MEAN_ANOMALY": 142.4874, "EPHEMERIS_TYPE": 0, "CLASSIFICATION_TYPE": "U", "NORAD_CAT_ID": 34792, "ELEMENT_SET_NO": 999, "REV_AT_EPOCH": 87514, "BSTAR": 0.0012055, "MEAN_MOTION_DOT": 5.266e-05, "MEAN_MOTION_DDOT": 0}, "tle": {"line1": "1 34792U 93036AAV 25337.40612412  .00005266  00000+0  12055-2 0  9999", "line2": "2 34792  74.0179 187.4210 0012594 281.0793 142.4874 14.55832875875142"}}, "geometry": {"type": "Point", "coordinates": [-158.49642042010498, 41.8188370811838]}}, {"type": "Feature", "properties": {"norad_id": 34793, "name": "COSMOS 2251 DEB", "group": "cosmos-2251-debris", "lat": 15.514091512738027, "lon": -88.57725998386957, "alt_km": 739.0874050991297, "timestamp": "2025-12-03T19:33:07.372475+00:00", "meta": {"OBJECT_NAME": "COSMOS 2251 DEB", "OBJECT_ID": "1993-036AAW", "EPOCH": "2025-12-03T05:02:37.810176", "MEAN_MOTION": 14.38617586, "ECCENTRICITY": 0.0049962, "INCLINATION": 74.0027, "RA_OF_ASC_NODE": 267.9715, "ARG_OF_PERICENTER": 64.663, "MEAN_ANOMALY": 62.5123, "EPHEMERIS_TYPE": 0, "CLASSIFICATION_TYPE": "U", "NORAD_CAT_ID": 34793, "ELEMENT_SET_NO": 999, "REV_AT_EPOCH": 87193, "BSTAR": 0.00040338, "MEAN_MOTION_DOT": 1.227e-05, "MEAN_MOTION_DDOT": 0}, "tle": {"line1": "1 34793U 93036AAW 25337.21015984  .00001227  00000+0  40338-3 0  9999", "line2": "2 34793  74.0027 267.9715 0049962  64.6630  62.5123 14.38617586871936"}}, "geometry": {"type": "Point", "coordinates": [-88.57725998386957, 15.514091512738027]}}, {"type": "Feature", "properties": {"norad_id": 34796, "name": "COSMOS 2251 DEB", "group": "cosmos-2251-debris", "lat": 29.36423732980402, "lon": 43.804463768052905, "alt_km": 798.9003465657352, "timestamp": "2025-12-03T19:33:07.372485+00:00", "meta": {"OBJECT_NAME": "COSMOS 2251 DEB", "OBJECT_ID": "1993-036AAZ", "EPOCH": "2025-12-03T11:24:14.978304", "MEAN_MOTION": 14.48605749, "ECCENTRICITY": 0.0100111, "INCLINATION": 74.031, "RA_OF_ASC_NODE": 233.7121, "ARG_OF_PERICENTER": 337.8155, "MEAN_ANOMALY": 201.5208, "EPHEMERIS_TYPE": 0, "CLASSIFICATION_TYPE": "U", "NORAD_CAT_ID": 34796, "ELEMENT_SET_NO": 999, "REV_AT_EPOCH": 87893, "BSTAR": 0.0011384, "MEAN_MOTION_DOT": 4.535e-05, "MEAN_MOTION_DDOT": 0}, "tle": {"line1": "1 34796U 93036AAZ 25337.47517336  .00004535  00000+0  11384-2 0  9991", "line2": "2 34796  74.0310 233.7121 0100111 337.8155 201.5208 14.48605749878932"}}, "geometry": {"type": "Point", "coordinates": [43.804463768052905, 29.36423732980402]}}, {"type": "Feature", "properties": {"norad_id": 34797, "name": "COSMOS 2251 DEB", "group": "cosmos-2251-debris", "lat": 69.62990872023165, "lon": -114.10378938593806, "alt_km": 775.0148260686165, "timestamp": "2025-12-03T19:33:07.372495+00:00", "meta": {"OBJECT_NAME": "COSMOS 2251 DEB", "OBJECT_ID": "1993-036ABA", "EPOCH": "2025-12-02T16:26:28.609440", "MEAN_MOTION": 14.42535201, "ECCENTRICITY": 0.00725247, "INCLINATION": 73.9763, "RA_OF_ASC_NODE": 118.7115, "ARG_OF_PERICENTER": 233.7261, "MEAN_ANOMALY": 125.7182, "EPHEMERIS_TYPE": 0, "CLASSIFICATION_TYPE": "U", "NORAD_CAT_ID": 34797, "ELEMENT_SET_NO": 999, "REV_AT_EPOCH": 87270, "BSTAR": 0.0028458232, "MEAN_MOTION_DOT": 9.728e-05, "MEAN_MOTION_DDOT": 0}, "tle": {"line1": "1 34797U 93036ABA 25336.68505335  .00009728  00000+0  28458-2 0  9999", "line2": "2 34797  73.9763 118.7115 0072524 233.7261 125.7182 14.42535201872702"}}, "geometry": {"type": "Point", "coordinates": [-114.10378938593806, 69.62990872023165]}}, {"type": "Feature", "properties": {"norad_id": 34814, "name": "COSMOS 2251 DEB", "group": "cosmos-2251-debris", "lat": -73.33312777151367, "lon": -92.8039926488207, "alt_km": 745.3651372114609, "timestamp": "2025-12-03T19:33:07.372505+00:00", "meta": {"OBJECT_NAME": "COSMOS 2251 DEB", "OBJECT_ID": "1993-036ABD", "EPOCH": "2025-12-02T11:13:46.501248", "MEAN_MOTION": 14.36815971, "ECCENTRICITY": 0.00568423, "INCLINATION": 73.8957, "RA_OF_ASC_NODE": 344.4866, "ARG_OF_PERICENTER": 235.7348, "MEAN_ANOMALY": 274.6986, "EPHEMERIS_TYPE": 0, "CLASSIFICATION_TYPE": "U", "NORAD_CAT_ID": 34814, "ELEMENT_SET_NO": 999, "REV_AT_EPOCH": 87185, "BSTAR": 0.0010643945, "MEAN_MOTION_DOT": 3.176e-05, "MEAN_MOTION_DDOT": 0}, "tle": {"line1": "1 34814U 93036ABD 25336.46789932  .00003176  00000+0  10644-2 0  9991", "line2": "2 34814  73.8957 344.4866 0056842 235.7348 274.6986 14.36815971871859"}}, "geometry": {"type": "Point", "coordinates": [-92.8039926488207, -73.33312777151367]}}, {"type": "Feature", "properties": {"norad_id": 34815, "name": "COSMOS 2251 DEB", "group": "cosmos-2251-debris", "lat": -1.7731502623792752, "lon": 79.82951775684329, "alt_km": 673.542619067619, "timestamp": "2025-12-03T19:33:07.372515+00:00", "meta": {"OBJECT_NAME": "COSMOS 2251 DEB", "OBJECT_ID": "1993-036ABE", "EPOCH": "2025-12-03T05:44:03.670368", "MEAN_MOTION": 14.78081041, "ECCENTRICITY": 0.005905, "INCLINATION": 74.0462, "RA_OF_ASC_NODE": 260.4516, "ARG_OF_PERICENTER": 331.6652, "MEAN_ANOMALY": 28.1315, "EPHEMERIS_TYPE": 0, "CLASSIFICATION_TYPE": "U", "NORAD_CAT_ID": 34815, "ELEMENT_SET_NO": 999, "REV_AT_EPOCH": 88487, "BSTAR": 0.0015519, "MEAN_MOTION_DOT": 0.00011536, "MEAN_MOTION_DDOT": 0}, "tle": {"line1": "1 34815U 93036ABE 25337.23893137  .00011536  00000+0  15519-2 0  9996", "line2": "2 34815  74.0462 260.4516 0059050 331.6652  28.1315 14.78081041884874"}}, "geometry": {"type": "Point", "coordinates": [79.82951775684329, -1.7731502623792752]}}, {"type": "Feature", "properties": {"norad_id": 34816, "name": "COSMOS 2251 DEB", "group": "cosmos-2251-debris", "lat": 23.06651007955248, "lon": 164.7552465426018, "alt_km": 1301.2507611651836, "timestamp": "2025-12-03T19:33:07.372525+00:00", "meta": {"OBJECT_NAME": "COSMOS 2251 DEB", "OBJECT_ID": "1993-036ABF", "EPOCH": "2025-12-03T06:10:46.926048", "MEAN_MOTION": 13.58283045, "ECCENTRICITY": 0.0373745, "INCLINATION": 73.8861, "RA_OF_ASC_NODE": 158.593, "ARG_OF_PERICENTER": 224.7049, "MEAN_ANOMALY": 314.4822, "EPHEMERIS_TYPE": 0, "CLASSIFICATION_TYPE": "U", "NORAD_CAT_ID": 34816, "ELEMENT_SET_NO": 999, "REV_AT_EPOCH": 82654, "BSTAR": 0.0013936, "MEAN_MOTION_DOT": 1.573e-05, "MEAN_MOTION_DDOT": 0}, "tle": {"line1": "1 34816U 93036ABF 25337.25748757  .00001573  00000+0  13936-2 0  9997", "line2": "2 34816  73.8861 158.5930 0373745 224.7049 314.4822 13.58283045826543"}}, "geometry": {"type": "Point", "coordinates": [164.7552465426018, 23.06651007955248]}}]}